id,provider,name,address,geometry,categories,city,country,postcode,mapbox_id
a1,Provider 2,Starbucks,138 West Ellendale Avenue,"{""coordinates"": [-123.31257629394531, 44.930686950683594], ""type"": ""Point""}",bakery;cafe;coffee;coffee_shop;food;food_and_drink;teahouse,Dallas,US,97338,dXJuOm1ieHBvaTpkOTZiZDM4MC1hMjg1LTQ2ZTEtYWVhYS1kNmM4ZGQzZDdlYjA
a2,Provider 2,McDonald's,8606 Skillman Street,"{""coordinates"": [-123.31257629394531, 44.930686950683594], ""type"": ""Point""}",breakfast_restaurant;burger_restaurant;fast_food;food;food_and_drink;restaurant,Dallas,US,75243,dXJuOm1ieHBvaTo2NjBhZmMwOC1jNzVjLTRhOTQtODFlYi00Yzc4OGYxZDgyODA
a3,Provider 2,Starbucks,8655 Hiram Acworth Highway,"{""coordinates"": [-84.75482940673828, 34.00975036621094], ""type"": ""Point""}",bakery;cafe;coffee;coffee_shop;food;food_and_drink;teahouse,Dallas,US,30157,dXJuOm1ieHBvaTpjOTc4Y2NhMy0yODE5LTRlNWItODU4ZC02OTQ0MzQyOTAyMTc
a4,Provider 2,"Terminal, Dallas Love Field Airport (DAL);Dallas Love Field Terminal; DAL Terminal:KDAL Terminal",8008 Herb Kelleher Way,"{""coordinates"": [-96.84972381591797, 32.84442901611328], ""type"": ""Point""}",airport_terminal,Dallas,US,75235,dXJuOm1ieHBvaTo4NTYyMzdjYi1hMWUxLTRjMjQtOGViYy00ZjhjMTYwNWM1M2Y
b1,Provider 2,Costco,1715 Charles Hardy Parkway,"{""coordinates"": [-84.76396942138672, 33.920631408691406], ""type"": ""Point""}",shopping;wholesale_store,Dallas,US,30157,dXJuOm1ieHBvaTpjYzFmNjljNy0zMTQ1LTRlOTAtOTlhNy1hODM0YmY1M2UzNTQ
b2,Provider 2,Walgreens;Walgreens Pharmacy,303 Charlie Watts Drive,"{""coordinates"": [-84.82364654541016, 33.9081916809082], ""type"": ""Point""}",health_services;pharmacy;services,Dallas,US,30157,dXJuOm1ieHBvaTozZDU0YjBiNy1kYjlmLTQ4N2YtODc1Zi1jMmI3Y2RlNzEyMDg
b3,Provider 2,McDonald's,3036 Villa Rica Highway,"{""coordinates"": [-84.84228515625, 33.86784362792969], ""type"": ""Point""}",breakfast_restaurant;burger_restaurant;fast_food;food;food_and_drink;restaurant,Dallas,US,30132,dXJuOm1ieHBvaToxM2Q2Y2E4OC1jNDA2LTQ4NTItYWJiOS0xNDQxOWE3ZDY5NjM
b4,Provider 2,McDonald's,3026 North Hampton Road,"{""coordinates"": [-96.85602569580078, 32.779483795166016], ""type"": ""Point""}",breakfast_restaurant;burger_restaurant;fast_food;food;food_and_drink;restaurant,Dallas,US,75212,dXJuOm1ieHBvaTpiNzU2OGYyMC1iNTUyLTRmZjgtOWY1NS0xNzMwMjVkMDMyOGY
c1,Provider 2,McDonald's,1808 South Beltline Road,"{""coordinates"": [-96.60086822509766, 32.6767463684082], ""type"": ""Point""}",breakfast_restaurant;burger_restaurant;fast_food;food;food_and_drink;restaurant,Dallas,US,75253,dXJuOm1ieHBvaTo5YjIyMDk3Ny02OTQwLTRiYWItYTdlMC1jMmQ0Yjk2MDU0MGI
c2,Provider 2,Starbucks,10305 Ferguson Road,"{""coordinates"": [-96.67353820800781, 32.83521270751953], ""type"": ""Point""}",bakery;cafe;coffee;coffee_shop;food;food_and_drink;teahouse,Dallas,US,75228,dXJuOm1ieHBvaTo3ZWE4MTJmNC0yM2E0LTQ1N2MtOWRlNy00Y2M3MWIxYmJhOTE
c3,Provider 2,McDonald's,8055 Great Trinity Forest Way,"{""coordinates"": [-96.68486022949219, 32.71302795410156], ""type"": ""Point""}",health_services;pharmacy;services,Dallas,US,75217,dXJuOm1ieHBvaTpjZGVhOGM2Zi1hNzZjLTQ5YjQtODJkMi02ZDk2NDkxZDMzNDY
c4,Provider 2,Starbucks,3701 West Northwest Highway,"{""coordinates"": [-96.8572006225586, 32.86225509643555], ""type"": ""Point""}",food;food_and_drink,Dallas,US,75220,dXJuOm1ieHBvaTowYzQ1YTU0NS1mN2E1LTRjMDMtOWMzOC0wNzRjYzFkMzIzNTQ
d1,Provider 2,McDonald's,11217 Garland Road,"{""coordinates"": [-96.68514251708984, 32.84833908081055], ""type"": ""Point""}",breakfast_restaurant;burger_restaurant;fast_food;food;food_and_drink;restaurant,Dallas,US,75218,dXJuOm1ieHBvaTpkOWMxMGIzNS1lNzY4LTQ3MTgtOTQ1Mi1jMjA3NzcxMGFlYjY
d2,Provider 2,Walmart Supercenter,7401 Samuell Blvd,"{""coordinates"": [-96.6892318725586, 32.79380416870117], ""type"": ""Point""}",,Dallas,US,75228,dXJuOm1ieHBvaTo0Nzg3MGU5Ni04MWFjLTQ3YmUtODZmMS02MTQxNmExMDhkOWE
d3,Provider 2,McDonald's,7401 Samuell Boulevard,"{""coordinates"": [-96.6892318725586, 32.79380416870117], ""type"": ""Point""}",breakfast_restaurant;burger_restaurant;fast_food;food;food_and_drink;restaurant,Dallas,US,75228,dXJuOm1ieHBvaTo1ODc5NmM5OS0zZGU2LTRiNDMtODg2OS0yMDVjODhiNjI1NWI
d4,Provider 2,McDonald's,2407 South Hampton Road,"{""coordinates"": [-96.85763549804688, 32.72160339355469], ""type"": ""Point""}",breakfast_restaurant;burger_restaurant;fast_food;food;food_and_drink;restaurant,Dallas,US,75233,dXJuOm1ieHBvaTpiOTVlNWQ5ZC03ZmJkLTRhODgtODEwOC1iZTY3ZDhmMmNkYjM
e1,Provider 2,McDonald's,8117 East R L Thornton Freeway,"{""coordinates"": [-96.70097351074219, 32.794979095458984], ""type"": ""Point""}",breakfast_restaurant;burger_restaurant;fast_food;food;food_and_drink;restaurant,Dallas,US,75228,dXJuOm1ieHBvaTplNDU1YWU2NC02MmViLTQxMjgtYTQ0ZC1jNmZkOTU3YzliYzg
e2,Provider 2,McDonald's,9403 Garland Road,"{""coordinates"": [-96.70368194580078, 32.833091735839844], ""type"": ""Point""}",breakfast_restaurant;burger_restaurant;fast_food;food;food_and_drink;restaurant,Dallas,US,75218,dXJuOm1ieHBvaToyNDJmYzIxNS03NDhjLTRkOTAtOWEwYS1hZmZjMzc2ZjYyOWU
e3,Provider 2,Starbucks,8698 Skillman Street,"{""coordinates"": [-96.72046661376953, 32.89614486694336], ""type"": ""Point""}",bakery;cafe;coffee;coffee_shop;food;food_and_drink;teahouse,Dallas,US,75243,dXJuOm1ieHBvaToyNjA5YjhlYy1lYTQwLTQxNWItYjdkYi03NmY5MGIwNmMzMWM
e4,Provider 2,McDonald's,8435 South Hampton Road,"{""coordinates"": [-96.85775756835938, 32.64457321166992], ""type"": ""Point""}",breakfast_restaurant;burger_restaurant;fast_food;food;food_and_drink;restaurant,Dallas,US,75232,dXJuOm1ieHBvaTozNTVlNGFmZC0wYWY5LTQyZWYtOTgyMC1jOTAxOGFiNzQ5YzU
f1,Provider 2,Starbucks,7325 Gaston Avenue,"{""coordinates"": [-96.73017120361328, 32.811859130859375], ""type"": ""Point""}",bakery;cafe;coffee;coffee_shop;food;food_and_drink;teahouse,Dallas,US,75214,dXJuOm1ieHBvaTo5ZjMyMWJlNC0zOWYzLTRhYWUtODBkNi1lZGYyODQ2ZTU5Y2Q
f2,Provider 2,Starbucks,7190 Skillman Street,"{""coordinates"": [-96.73441314697266, 32.877471923828125], ""type"": ""Point""}",bakery;cafe;coffee;coffee_shop;food;food_and_drink;teahouse,Dallas,US,75231,dXJuOm1ieHBvaToxMDFjMmZmNC0zNjQ3LTQ1NzYtOWFmOS0xY2ZkYmQwNTUxMTU
f3,Provider 2,McDonald's,11820 Abrams Road,"{""coordinates"": [-96.73512268066406, 32.91001892089844], ""type"": ""Point""}",breakfast_restaurant;burger_restaurant;fast_food;food;food_and_drink;restaurant,Dallas,US,75243,dXJuOm1ieHBvaToyZmFiMDlkYy1mZjM0LTRlNmUtYWI4Ny1kZjk5MjM1NTVlOTE
f4,Provider 2,Walmart Supercenter,18121 Marsh Ln,"{""coordinates"": [-96.85785675048828, 32.99508285522461], ""type"": ""Point""}",,Dallas,US,75287,dXJuOm1ieHBvaTplYzBhZDk5Mi04NjJlLTQyZGUtYjlkNC03OGY2N2EwZWU1YTE
g1,Provider 2,McDonald's,9301 Forest Lane,"{""coordinates"": [-96.7387924194336, 32.91074752807617], ""type"": ""Point""}",breakfast_restaurant;burger_restaurant;fast_food;food;food_and_drink;restaurant,Dallas,US,75243,dXJuOm1ieHBvaTpjZTU1YWMwNi0yMDczLTRmNWItODQxNS1mODllMWIwOWJlZTM
g2,Provider 2,McDonald's,5934 Abrams Road,"{""coordinates"": [-96.74815368652344, 32.85737991333008], ""type"": ""Point""}",breakfast_restaurant;burger_restaurant;fast_food;food;food_and_drink;restaurant,Dallas,US,75231,dXJuOm1ieHBvaTo0YTZhNzMzZC02YjQyLTRlZDAtOWRjNy0xYzRiM2FjNWY1YTQ
g3,Provider 2,Walgreens;Walgreens Pharmacy,6520 East Northwest Highway,"{""coordinates"": [-96.74833679199219, 32.856014251708984], ""type"": ""Point""}",health_services;pharmacy;services,Dallas,US,75231,dXJuOm1ieHBvaTpiYjI0NTE1Mi0yMzEzLTRkZjctYWRlMy1jZDEwY2RmOWU1ZTU
g4,Provider 2,Big Thicket,430 East Lawther Drive,"{""coordinates"": [-96.85844421386719, 32.74260330200195], ""type"": ""Point""}",cafe;food;food_and_drink,,US,75218,dXJuOm1ieHBvaTplODM0ZjNlOS1iNzIyLTQxMzQtYTJhMi0zMDU2NmM0ZTg3ZmE
h1,Provider 2,Starbucks,6312 La Vista Drive,"{""coordinates"": [-96.7535629272461, 32.812278747558594], ""type"": ""Point""}",bakery;cafe;coffee;coffee_shop;food;food_and_drink;teahouse,Dallas,US,75214,dXJuOm1ieHBvaTowMWJjNThlZS00YTgwLTRjMDctYmZmNC0yNDBhNWVmOGE4OGY
h2,Provider 2,Starbucks,6333 East Mockingbird Lane,"{""coordinates"": [-96.75450134277344, 32.83771514892578], ""type"": ""Point""}",bakery;cafe;coffee;coffee_shop;food;food_and_drink;teahouse,Dallas,US,75214,dXJuOm1ieHBvaTo1ZDM2Y2JlOC00NGE4LTRlOWYtOWRkMy01YWE5M2MyNTE4NDI
h3,Provider 2,Walmart Supercenter,6185 Retail Rd,"{""coordinates"": [-96.75483703613281, 32.862850189208984], ""type"": ""Point""}",,Dallas,US,75231,dXJuOm1ieHBvaTo5MDAwMDk5NC04ZGU2LTQ5YzEtODZiMS02ODRjNTdlYmQ3NDU
h4,Provider 2,Starbucks,315 South Hampton Road,"{""coordinates"": [-96.85844421386719, 32.74260330200195], ""type"": ""Point""}",bakery;cafe;coffee;coffee_shop;food;food_and_drink;teahouse,Dallas,US,75208,dXJuOm1ieHBvaTo5MDNlYmQ0Ny05YzgwLTQzODAtYmFkMC1mY2VhNWI2MjhkMjY
i1,Provider 2,Mot Hai Ba,6047 Lewis Street,"{""coordinates"": [-96.7623062133789, 32.812339782714844], ""type"": ""Point""}",food;food_and_drink;french_restaurant;restaurant,,US,75206,dXJuOm1ieHBvaTo5NTc4OTA1NS1iNDllLTQwMjMtYmFlMi1kNzFlOTU1ZmU4NzA
i2,Provider 2,McDonald's,6950 Greenville Avenue,"{""coordinates"": [-96.76293182373047, 32.872798919677734], ""type"": ""Point""}",breakfast_restaurant;burger_restaurant;fast_food;food;food_and_drink;restaurant,Dallas,US,75231,dXJuOm1ieHBvaTo0NzYzNjFiNi0zMDdmLTQzOWEtYWIxNy01Y2NkMDdiOTE3MjM
i3,Provider 2,Walgreens;Walgreens Pharmacy,1461 Robert B Cullum Boulevard,"{""coordinates"": [-96.76313781738281, 32.775115966796875], ""type"": ""Point""}",services,Dallas,US,75210,dXJuOm1ieHBvaToyZjI4OTg4NS03MWE3LTQ3MjctODUxMi1mYjUxYjgyOTQxYWY
i4,Provider 2,McDonald's,2570 West Red Bird Lane,"{""coordinates"": [-96.86065673828125, 32.670711517333984], ""type"": ""Point""}",breakfast_restaurant;burger_restaurant;fast_food;food;food_and_drink;restaurant,Dallas,US,75236,dXJuOm1ieHBvaTplYjJiNzVjYy04ZmYwLTQ5NWEtYWVlMC0yZTBkZDMzZWIyZjQ
j1,Provider 2,Starbucks,5905 East Northwest Highway,"{""coordinates"": [-96.76348114013672, 32.865966796875], ""type"": ""Point""}",bakery;cafe;coffee;coffee_shop;food;food_and_drink;teahouse,Dallas,US,75231,dXJuOm1ieHBvaTo0ZTQ5MGQzOS01NzVjLTRiYTktODJkNy1jMGRmZGQ1OWY4MWM
j2,Provider 2,McDonald's,3310 Al Lipscomb Way,"{""coordinates"": [-96.76509857177734, 32.776710510253906], ""type"": ""Point""}",breakfast_restaurant;burger_restaurant;fast_food;food;food_and_drink;restaurant,Dallas,US,75210,dXJuOm1ieHBvaTpiOWY1OTY0Ni04ZTgwLTRmNGYtODQyZS0wNzIxOGRiZjgzNDk
j3,Provider 2,McDonald's,11102 North Central Expressway,"{""coordinates"": [-96.76824188232422, 32.89936065673828], ""type"": ""Point""}",breakfast_restaurant;burger_restaurant;fast_food;food;food_and_drink;restaurant,Dallas,US,75243,dXJuOm1ieHBvaTo0ZWM1ZWI5MS02YjAxLTRkZDUtOTQ0Yi00MTE0MWVkMmI4YTg
j4,Provider 2,McDonald's,3520 Storey Lane,"{""coordinates"": [-96.8641128540039, 32.865230560302734], ""type"": ""Point""}",breakfast_restaurant;burger_restaurant;fast_food;food;food_and_drink;restaurant,Dallas,US,75220,dXJuOm1ieHBvaTpjMjA4OWExNS1mNDFkLTRjMDMtODI5OS1mNGE1YTcwYWRhNmM
k1,Provider 2,Starbucks,6123 Greenville Avenue,"{""coordinates"": [-96.76841735839844, 32.86033630371094], ""type"": ""Point""}",bakery;cafe;coffee;coffee_shop;food;food_and_drink;teahouse,Dallas,US,75206,dXJuOm1ieHBvaTpjNmUzYzE2OS05ZDMwLTRmYzgtODVjNy05N2ZmZWRiODA1MTE
k2,Provider 2,Walgreens;Walgreens Pharmacy,5742 East Mockingbird Lane,"{""coordinates"": [-96.76844787597656, 32.83610916137695], ""type"": ""Point""}",health_services;pharmacy;services,Dallas,US,75206,dXJuOm1ieHBvaTplYTE1MGExMS1kMDI1LTQ1ZmMtYjA1Ni01MWVkOTNkNzE0MzA
k3,Provider 2,McDonald's,13040 Coit Road,"{""coordinates"": [-96.76854705810547, 32.925758361816406], ""type"": ""Point""}",breakfast_restaurant;burger_restaurant;fast_food;food;food_and_drink;restaurant,Dallas,US,75240,dXJuOm1ieHBvaToxMWZkYWFhMy02NDc1LTQwYTAtYjcxMy04M2Y2NzY3NmU1N2M
k4,Provider 2,Starbucks,1103 West Mockingbird Lane,"{""coordinates"": [-96.87086486816406, 32.818241119384766], ""type"": ""Point""}",bakery;cafe;coffee;coffee_shop;food;food_and_drink;teahouse,Dallas,US,75247,dXJuOm1ieHBvaTphMWNiOTBmNC0yOTM5LTQ4ZTktYmIwMi1iMWQ0N2M3NzRmNGQ
l1,Provider 2,Starbucks,1827 Greenville Avenue,"{""coordinates"": [-96.7706069946289, 32.813079833984375], ""type"": ""Point""}",bakery;cafe;coffee;coffee_shop;food;food_and_drink;teahouse,Dallas,US,75206,dXJuOm1ieHBvaTo1ODYyMDMxOS01MmNjLTQ2NzQtYjM0MS03ZjQ1ODg2NDE2ZWU
l2,Provider 2,Starbucks,7718 Forest Lane,"{""coordinates"": [-96.77330780029297, 32.90915298461914], ""type"": ""Point""}",bakery;cafe;coffee;coffee_shop;food;food_and_drink;teahouse,Dallas,US,75230,dXJuOm1ieHBvaToxNmFkZDliMS0xM2E1LTRiNmQtYjJjMi04ZjFiNjk0NDAzYzc
l3,Provider 2,Walgreens;Walgreens Pharmacy,5001 Ross Avenue,"{""coordinates"": [-96.77520751953125, 32.80765914916992], ""type"": ""Point""}",health_services;pharmacy;services,Dallas,US,75206,dXJuOm1ieHBvaTplMTkxNWM5NS0wYmE2LTQwNGEtYjk0MC05MGRiMjlhN2VjZTA
l4,Provider 2,Walgreens;Walgreens Pharmacy,1104 South Westmoreland Road,"{""coordinates"": [-96.87351989746094, 32.73403549194336], ""type"": ""Point""}",health_services;pharmacy;services,Dallas,US,75211,dXJuOm1ieHBvaTpmNmVhZmEyNy1lOWMxLTRlMmItODk2Zi0zMzgyN2Y0MzkwYmY
m1,Provider 2,Starbucks,5331 East Mockingbird Lane,"{""coordinates"": [-96.77616882324219, 32.83784103393555], ""type"": ""Point""}",bakery;cafe;coffee;coffee_shop;food;food_and_drink;teahouse,Dallas,US,75206,dXJuOm1ieHBvaTozNDdlODAyMi0yZTM2LTRjZTctOWI2Zi1lYjg4NDY4YTFlN2U
m2,Provider 2,Starbucks,4025 Gaston Avenue,"{""coordinates"": [-96.77727508544922, 32.79384994506836], ""type"": ""Point""}",bakery;cafe;coffee;coffee_shop;food;food_and_drink;teahouse,Dallas,US,75246,dXJuOm1ieHBvaTo0MWRkMjg3OC0zNzJmLTQwM2ItOGUzNC1lNDVjMGIwZTI4ZjQ
m3,Provider 2,21 Flavors Wings,4321 Live Oak Street,"{""coordinates"": [-96.77779388427734, 32.79875183105469], ""type"": ""Point""}",,,US,75204,dXJuOm1ieHBvaTo4MGNjZmU3OC1kNjU0LTRkYTAtOTRjOC1hYmI1YjBiY2Y1MGU
m4,Provider 2,Starbucks,3620 West Camp Wisdom Road,"{""coordinates"": [-96.87857055664062, 32.661773681640625], ""type"": ""Point""}",bakery;cafe;coffee;coffee_shop;food;food_and_drink;teahouse,Dallas,US,75237,dXJuOm1ieHBvaTozZjhiYjZiZi1iZjljLTQzZGYtOTM2OC1kZTQ0ZWMzOTY4ZmM
n1,Provider 2,McDonald's,3802 Gaston Avenue,"{""coordinates"": [-96.77877044677734, 32.79206848144531], ""type"": ""Point""}",breakfast_restaurant;burger_restaurant;fast_food;food;food_and_drink;restaurant,Dallas,US,75246,dXJuOm1ieHBvaToyNjBjNDE4Ny00MThlLTQwMDgtYjMwOC1hMGExZDRhZGZlNWY
n2,Provider 2,Starbucks,Hillcrest Avenue,"{""coordinates"": [-96.7834701538086, 32.84423828125], ""type"": ""Point""}",bakery;cafe;coffee;coffee_shop;food;food_and_drink;teahouse,Dallas,US,75205,dXJuOm1ieHBvaTpjZDcyYzZmOS0xYjI3LTRhZTItYmI5Ni1mYWE4YjMzNWIxYTI
n3,Provider 2,Starbucks,6733 Hillcrest Avenue,"{""coordinates"": [-96.7871322631836, 32.84833908081055], ""type"": ""Point""}",bakery;cafe;coffee;coffee_shop;food;food_and_drink;teahouse,Dallas,US,75205,dXJuOm1ieHBvaToxYTJlOTg3YS01MTMzLTQ2MWQtOTRhZi0zOThjZjk0MzYzNmM
n4,Provider 2,McDonald's,4223 West Illinois Avenue,"{""coordinates"": [-96.88941955566406, 32.72092819213867], ""type"": ""Point""}",breakfast_restaurant;burger_restaurant;fast_food;food;food_and_drink;restaurant,Dallas,US,75211,dXJuOm1ieHBvaTpjYWY4M2FlNC0zNTQwLTQ2OTMtYWYyNi00NjA5YTNhNDY0ZWY
o1,Provider 2,Starbucks,4241 Capitol Avenue,"{""coordinates"": [-96.78888702392578, 32.80656051635742], ""type"": ""Point""}",bakery;cafe;coffee;coffee_shop;food;food_and_drink;teahouse,Dallas,US,75204,dXJuOm1ieHBvaTo4MDNkODQyMS04OWFkLTQyY2UtODQwMC1lYzk1Y2YxYzZjMDM
o2,Provider 2,Walgreens;Walgreens Pharmacy,6707 West Northwest Highway,"{""coordinates"": [-96.7889633178711, 32.86613082885742], ""type"": ""Point""}",health_services;pharmacy;services,Dallas,US,75225,dXJuOm1ieHBvaTpjNzVjOWVlYy1hN2EwLTRjZTUtYmYyZi04OGVkNDU0ZjgwM2E
o3,Provider 2,Starbucks,6859 Arapaho Road,"{""coordinates"": [-96.79006958007812, 32.96279525756836], ""type"": ""Point""}",bakery;cafe;coffee;coffee_shop;food;food_and_drink;teahouse,Dallas,US,75248,dXJuOm1ieHBvaTo4NzYxMzNlYi03MjQ4LTQ0ZDQtYTRkYS0wZTEwMDk2OTVkZjY
o4,Provider 2,Kababjee of Texas,11276 Harry Hines Boulevard,"{""coordinates"": [-96.88953399658203, 32.89253616333008], ""type"": ""Point""}",food;food_and_drink;middle_eastern_restaurant;restaurant,,US,75229,dXJuOm1ieHBvaTo2MjZjMzJmOC04MDE3LTQ1NDItYjVlYS0yODJjZWI3OTcxNTY
p1,Provider 2,"Café Bilboquet;Café Bilboquet, Dallas",4514 Travis Street,"{""coordinates"": [-96.79056549072266, 32.822349548339844], ""type"": ""Point""}",cafe;food;food_and_drink,,US,75205,dXJuOm1ieHBvaTpjN2E5NTQ2ZC1jNjBkLTQ0MDEtYTgyOS1hOWVmOGRjNTFmZDc
p2,Provider 2,Target,2417 North Haskell Avenue,"{""coordinates"": [-96.79150390625, 32.80378341674805], ""type"": ""Point""}",department_store;shopping,Dallas,US,75204,dXJuOm1ieHBvaTo2Y2U4ZjFlMC1jYzFhLTQxZjMtYmMzNC01YzczMDE3YTFlMjA
p3,Provider 2,Starbucks,2200 Ross Avenue,"{""coordinates"": [-96.79664611816406, 32.78792953491211], ""type"": ""Point""}",bakery;cafe;coffee;coffee_shop;food;food_and_drink;teahouse,Dallas,US,75201,dXJuOm1ieHBvaTo3ZmU3NDlhYy1lZTU5LTQwOTAtYjZmZi01ODI4ZmIxM2ZjZjI
p4,Provider 2,Walgreens;Walgreens Pharmacy,8120 South Cockrell Hill Road,"{""coordinates"": [-96.89083099365234, 32.6480598449707], ""type"": ""Point""}",health_services;pharmacy;services,Dallas,US,75236,dXJuOm1ieHBvaTpjMGVkYTViOS1lZWRjLTQ1OGUtYjAxMi1jY2ZlODkxN2U5NzE
q1,Provider 2,Starbucks,208 South Akard Street,"{""coordinates"": [-96.7987060546875, 32.77949523925781], ""type"": ""Point""}",bakery;cafe;coffee;coffee_shop;food;food_and_drink;teahouse,Dallas,US,75202,dXJuOm1ieHBvaToyM2MwNjRhYi00YzNlLTQ3YjktOGZlMC1iMmUxYmM5MDhlNmI
q2,Provider 2,Starbucks,500 North Akard Street,"{""coordinates"": [-96.80018615722656, 32.784400939941406], ""type"": ""Point""}",bakery;cafe;coffee;coffee_shop;food;food_and_drink;teahouse,Dallas,US,75201,dXJuOm1ieHBvaTplMDQyM2Q5MS1hYTBmLTQzNjgtOTYyYi1kMjNjYzg4MjNkYzg
q3,Provider 2,Starbucks,2801 Allen Street,"{""coordinates"": [-96.80121612548828, 32.8004264831543], ""type"": ""Point""}",bakery;cafe;coffee;coffee_shop;food;food_and_drink;teahouse,Dallas,US,75204,dXJuOm1ieHBvaTpmZmMzNGI3YS1mYjdkLTQ4MGUtYTRmNS05YzlhZDIzNzI4MzQ
q4,Provider 2,Starbucks,2285 West Northwest Highway,"{""coordinates"": [-96.8913803100586, 32.862144470214844], ""type"": ""Point""}",bakery;cafe;coffee;coffee_shop;food;food_and_drink;teahouse,Dallas,US,75220,dXJuOm1ieHBvaTplZTEyZjE1My1mYmY5LTQxZDYtYmY3Mi1jNWY4ZjE3NGM2ZjI
r1,Provider 2,McDonald's,14770 Preston Road,"{""coordinates"": [-96.80294036865234, 32.9494743347168], ""type"": ""Point""}",breakfast_restaurant;burger_restaurant;fast_food;food;food_and_drink;restaurant,Dallas,US,75240,dXJuOm1ieHBvaToxYzY4ZGRhNS00MTMyLTRmN2MtYjgxMS1hNWYxZTRjMjg4YTU
r2,Provider 2,McDonald's,1000 Commerce Street,"{""coordinates"": [-96.8030776977539, 32.77867126464844], ""type"": ""Point""}",breakfast_restaurant;burger_restaurant;fast_food;food;food_and_drink;restaurant,Dallas,US,75202,dXJuOm1ieHBvaToyMzdhYTgxNi00YWZmLTRlMGUtOTFmNS02MGI3ZDczZDI5NDg
r3,Provider 2,Starbucks,13556 Preston Road,"{""coordinates"": [-96.8031997680664, 32.93260955810547], ""type"": ""Point""}",bakery;cafe;coffee;coffee_shop;food;food_and_drink;teahouse,Dallas,US,75240,dXJuOm1ieHBvaTozMTk1ZjNhMS1jOWVlLTQwZGYtOTQxYi1mMTEwYjQ0NGExMjQ
r4,Provider 2,Starbucks,1601 North Cockrell Hill Road,"{""coordinates"": [-96.89614868164062, 32.76487731933594], ""type"": ""Point""}",bakery;cafe;coffee;coffee_shop;food;food_and_drink;teahouse,Dallas,US,75211,dXJuOm1ieHBvaTphY2Y4OTYyYS03YmI3LTQ5M2ItYjkwYy01YjIxYThhZDExMzI
s1,Provider 2,Starbucks,7300 University Hills Boulevard,"{""coordinates"": [-96.80340576171875, 32.65885543823242], ""type"": ""Point""}",bakery;cafe;coffee;coffee_shop;food;food_and_drink;teahouse,Dallas,US,75241,dXJuOm1ieHBvaToyYzFjYjJiYS1kMjFhLTQ3YTAtOTVjNy1hY2VjZjQwOGZkYmI
s2,Provider 2,Starbucks,400 Crescent Court,"{""coordinates"": [-96.80422973632812, 32.794193267822266], ""type"": ""Point""}",department_store;shopping,Dallas,US,75201,dXJuOm1ieHBvaTpkMDExYmI5Yy0wNDE0LTRhOTAtOTFhMy0xYTcyMjM5OGViM2E
s3,Provider 2,Starbucks,11919 Preston Road,"{""coordinates"": [-96.80436706542969, 32.911434173583984], ""type"": ""Point""}",bakery;cafe;coffee;coffee_shop;food;food_and_drink;teahouse,Dallas,US,75230,dXJuOm1ieHBvaTphNDg2NWY2NC1mM2Q1LTRmNTQtOTYzMy1mNjc1ZTU3OWEzNTc
s4,Provider 2,McDonald's,2475 Royal Lane,"{""coordinates"": [-96.89630126953125, 32.89665985107422], ""type"": ""Point""}",breakfast_restaurant;burger_restaurant;fast_food;food;food_and_drink;restaurant,Dallas,US,75229,dXJuOm1ieHBvaTozZGQzYTNlNC01Mjk3LTQzODUtOWQ2OC00MDQwMDcwNzRjZDU
t1,Provider 2,Starbucks,100 Highland Park Village,"{""coordinates"": [-96.80484771728516, 32.83598709106445], ""type"": ""Point""}",bakery;cafe;coffee;coffee_shop;food;food_and_drink;teahouse,Dallas,US,75205,dXJuOm1ieHBvaTpjMWZhMjkxNS04MDMwLTQyZmEtYTYzMS1mZDEyMjI5MTc5MGI
t2,Provider 2,Starbucks,8335 Westchester Drive,"{""coordinates"": [-96.80694580078125, 32.8640251159668], ""type"": ""Point""}",bakery;cafe;coffee;coffee_shop;food;food_and_drink;teahouse,Dallas,US,75218,dXJuOm1ieHBvaTpiNjdhNWIyMy0xNjJmLTRjNzQtOGVkNS1lMWQ1OGRiMDVkOWM
t3,Provider 2,Walgreens;Walgreens Pharmacy,3826 Cedar Springs Road,"{""coordinates"": [-96.80863952636719, 32.809898376464844], ""type"": ""Point""}",health_services;pharmacy;services,Dallas,US,75219,dXJuOm1ieHBvaTo2OGM3ZGM0ZC0yNWM3LTRmYTAtODhiOS1mM2JjMzY3MDQ1ZWI
t4,Provider 2,McDonald's,4330 Dallas Fort Worth Turnpike,"{""coordinates"": [-96.89690399169922, 32.76523971557617], ""type"": ""Point""}",breakfast_restaurant;burger_restaurant;fast_food;food;food_and_drink;restaurant,Dallas,US,75211,dXJuOm1ieHBvaTowNGExNThiOS1kMzI3LTQxNDAtODk1Ny05NTZiMjFkYTQ5OTg
u1,Provider 2,Starbucks,4023 Lemmon Avenue,"{""coordinates"": [-96.80864715576172, 32.81405258178711], ""type"": ""Point""}",bakery;cafe;coffee;coffee_shop;food;food_and_drink;teahouse,Dallas,US,75219,dXJuOm1ieHBvaTplODA0ZjI5MC1jNzc1LTRlNTktYWYzNy0wYjE5MjNkN2Y2Zjg
u2,Provider 2,Starbucks,2401 Victory Park Lane,"{""coordinates"": [-96.81011199951172, 32.78853988647461], ""type"": ""Point""}",bakery;cafe;coffee;coffee_shop;food;food_and_drink;teahouse,Dallas,US,75219,dXJuOm1ieHBvaTpjNzQ0NTc2NC1hNjFkLTQxZTgtOTRhOS1hYzU4OTQxMGM5MDU
u3,Provider 2,Starbucks,2800 Oak Lawn Avenue,"{""coordinates"": [-96.81065368652344, 32.80686569213867], ""type"": ""Point""}",bakery;cafe;coffee;coffee_shop;food;food_and_drink;teahouse,Dallas,US,75219,dXJuOm1ieHBvaTpkY2IyMGQwNy1mNGI4LTQwNzItOGE3My1kNzc2ODNjYzBjNWE
u4,Provider 2,McDonald's,2197 West Northwest Highway,"{""coordinates"": [-96.9013671875, 32.86540603637695], ""type"": ""Point""}",breakfast_restaurant;burger_restaurant;fast_food;food;food_and_drink;restaurant,Dallas,US,75225,dXJuOm1ieHBvaTozNjQ2YjY3ZC1jNDcxLTRhYzctOWY1Yi0xYjdlN2QxYzY0ZGU
v1,Provider 2,Target,13131 Montfort Drive,"{""coordinates"": [-96.81355285644531, 32.9281120300293], ""type"": ""Point""}",department_store;shopping,Dallas,US,75240,dXJuOm1ieHBvaTpjMmQ3MzEwOS05ZDA0LTQ2MTAtOGQzMy1iOTAwMDE1OTU1MDk
v2,Provider 2,McDonald's,650 North Riverfront Boulevard,"{""coordinates"": [-96.81429290771484, 32.782901763916016], ""type"": ""Point""}",breakfast_restaurant;burger_restaurant;fast_food;food;food_and_drink;restaurant,Dallas,US,75207,dXJuOm1ieHBvaTo0ZjM5NzdhOC03NmM2LTRjMWEtOGE1Zi05NDBlODU4Mzg4ZTA
v3,Provider 2,Starbucks,12262 Inwood Road,"{""coordinates"": [-96.8180160522461, 32.91519546508789], ""type"": ""Point""}",bakery;cafe;coffee;coffee_shop;food;food_and_drink;teahouse,Dallas,US,75244,dXJuOm1ieHBvaTpiZDFiNDkyMS03YTU0LTQ4ODMtODM1MS1kNDk1YTZlMDE5MjY
v4,Provider 2,Joak BBQ,2254 Royal Lane,"{""coordinates"": [-96.9024658203125, 32.89514923095703], ""type"": ""Point""}",food;food_and_drink;korean_restaurant;restaurant,,US,75229,dXJuOm1ieHBvaTo2NjdlZTkyNC05MjVlLTQ2NGItOGYxMi02OWIxZWJlYzU0Njc
w1,Provider 2,Starbucks,13350 Dallas Parkway,"{""coordinates"": [-96.81965637207031, 32.92943572998047], ""type"": ""Point""}",bakery;cafe;coffee;coffee_shop;food;food_and_drink;teahouse,Dallas,US,75240,dXJuOm1ieHBvaTo0MzgzNTc5ZC04ZjdjLTQ3OWEtYjI5Yi1iMzk1NGM1YTM3YmM
w2,Provider 2,"Torteria Insurgentes;Torteria Insurgentes, Jefferson Blvd",201 West Jefferson Boulevard,"{""coordinates"": [-96.82483673095703, 32.74344253540039], ""type"": ""Point""}",food;food_and_drink;mexican_restaurant;restaurant,,US,75208,dXJuOm1ieHBvaTo5YTlmMzQ3Yy1jMDM5LTRjNmYtOTc5Ny1iOTgxMzNiYzA2MGQ
w3,Provider 2,Starbucks,2050 North Stemmons Freeway,"{""coordinates"": [-96.82630920410156, 32.803199768066406], ""type"": ""Point""}",bakery;cafe;coffee;coffee_shop;food;food_and_drink;teahouse,Dallas,US,75207,dXJuOm1ieHBvaTphOTAxNGUzNy0zOWQ3LTQ3MGItYTBlOC04MDVmZjkzZjAxOTE
x1,Provider 2,Oreste's New York Pizza & Bocce,3011 Gulden Lane,"{""coordinates"": [-96.82865142822266, 32.779327392578125], ""type"": ""Point""}",food;food_and_drink;italian_restaurant;restaurant,,US,75212,dXJuOm1ieHBvaTplYzM4MDNjOC00ZDUxLTQ2OTUtYmNiZS0wYTAyZjAyMjRmM2Y
x2,Provider 2,McDonald's,705 West Jefferson Boulevard,"{""coordinates"": [-96.83429718017578, 32.74348449707031], ""type"": ""Point""}",breakfast_restaurant;burger_restaurant;fast_food;food;food_and_drink;restaurant,Dallas,US,75208,dXJuOm1ieHBvaTphNTg2OGEwMi0yNzg5LTQ3NmEtYjc5MC0yMTU5NzZhOTM2MWU
x3,Provider 2,Starbucks,1935 Medical District Drive,"{""coordinates"": [-96.8371353149414, 32.80925750732422], ""type"": ""Point""}",bakery;cafe;coffee;coffee_shop;food;food_and_drink;teahouse,Dallas,US,75235,dXJuOm1ieHBvaTplNDQ4NjM3Yi1jYTYwLTRlNmMtODQwOS0yZGY1YjY4YWNlNGM
y1,Provider 2,"China Kitchen;China Kitchen, Dallas",3939 South Polk Street,"{""coordinates"": [-96.83910369873047, 32.696651458740234], ""type"": ""Point""}",chinese_restaurant;food;food_and_drink;restaurant,,US,75224,dXJuOm1ieHBvaTpiY2RkOTJhNy05ZjQ1LTQ5MjEtYjU1OC04NDVmZTNkYjMwM2Y
y2,Provider 2,Walgreens;Walgreens Pharmacy,1060 West Camp Wisdom Road,"{""coordinates"": [-96.83929443359375, 32.661781311035156], ""type"": ""Point""}",health_services;pharmacy;services,Dallas,US,75232,dXJuOm1ieHBvaTpmY2M5MmJiMS0yYjVhLTQ0NjktODE2NC1kYmU4ODgzYWZiNTA
y3,Provider 2,"RideShare Parking;RideShare;P RideShare;RideShare Parking, Dallas Love Field Airport (DAL)",8008 Herb Kelleher Way,"{""coordinates"": [-96.83935546875, 32.8333854675293], ""type"": ""Point""}",parking_lot,Dallas,US,75235,dXJuOm1ieHBvaTo1NjRlOTg1NS0yOTk5LTQyNTEtYjY3MC1kYmNkZTYxN2MzY2Y
z1,Provider 2,Walmart Supercenter,4122 L B J Fwy,"{""coordinates"": [-96.8404312133789, 32.92185974121094], ""type"": ""Point""}",,Dallas,US,75244,dXJuOm1ieHBvaTo1YTg2NzBlOS1mNjgxLTQ2ZDItOGU0Yi02NGMxOWJhYWQzYTc
z2,Provider 2,McDonald's,17606 Midway Road,"{""coordinates"": [-96.8416519165039, 32.987918853759766], ""type"": ""Point""}",breakfast_restaurant;burger_restaurant;fast_food;food;food_and_drink;restaurant,Dallas,US,75287,dXJuOm1ieHBvaTo3YjkyMGU4MS1hZjUxLTRlNzUtODhhNS00OWU1NzZjODNkOTI
z3,Provider 2,Tu Pastelito,18110 Midway Road,"{""coordinates"": [-96.84259796142578, 32.99655532836914], ""type"": ""Point""}",food;food_and_drink;latin_american_restaurant;restaurant,,US,75287,dXJuOm1ieHBvaTo3MDM4ZDgwMS1kYjFkLTQ4NzktYmU5ZC04NmY1NTI3MmZjM2I