id,provider,name,address,geometry,categories,city,country,postcode,mapbox_id
1,Provider 1,Starbucks,137 W Ellendale Ave,"{""coordinates"": [-123.31266147, 44.93074775], ""type"": ""Point""}",cafe;coffee;coffee_shop;food;food_and_drink,,US,973381408,dXJuOm1ieHBvaTpkOTZiZDM4MC1hMjg1LTQ2ZTEtYWVhYS1kNmM4ZGQzZDdlYjA
2,Provider 1,Starbucks,8655 Hiram Acworth Hwy,"{""coordinates"": [-84.75483938, 34.00969773], ""type"": ""Point""}",grocery;shopping;supermarket,,US,301576599,dXJuOm1ieHBvaTpjOTc4Y2NhMy0yODE5LTRlNWItODU4ZC02OTQ0MzQyOTAyMTc
3,Provider 1,Costco Pharmacy,1715 Charles Hardy Pkwy,"{""coordinates"": [-84.76380003, 33.92055333], ""type"": ""Point""}",health_services;pharmacy;services,,US,30157,dXJuOm1ieHBvaTpjYzFmNjljNy0zMTQ1LTRlOTAtOTlhNy1hODM0YmY1M2UzNTQ
4,Provider 1,Walgreens Photo,303 Charlie Watts Dr,"{""coordinates"": [-84.8237871, 33.90817476], ""type"": ""Point""}",photo_store;photographer;services;shopping,,US,30157,dXJuOm1ieHBvaTozZDU0YjBiNy1kYjlmLTQ4N2YtODc1Zi1jMmI3Y2RlNzEyMDg
5,Provider 1,McDonald's,3036 Villa Rica Hwy,"{""coordinates"": [-84.84245562, 33.8677287], ""type"": ""Point""}",fast_food;food;food_and_drink,,US,30132,dXJuOm1ieHBvaToxM2Q2Y2E4OC1jNDA2LTQ4NTItYWJiOS0xNDQxOWE3ZDY5NjM
6,Provider 1,McDonald's,1808 S Beltline Rd,"{""coordinates"": [-96.60095653, 32.67676233], ""type"": ""Point""}",fast_food;food;food_and_drink,,US,75253,dXJuOm1ieHBvaTo5YjIyMDk3Ny02OTQwLTRiYWItYTdlMC1jMmQ0Yjk2MDU0MGI
7,Provider 1,Starbucks,10305 Ferguson Road,"{""coordinates"": [-96.67351976, 32.83520441], ""type"": ""Point""}",cafe;coffee;coffee_shop;food;food_and_drink,,US,752283014,dXJuOm1ieHBvaTo3ZWE4MTJmNC0yM2E0LTQ1N2MtOWRlNy00Y2M3MWIxYmJhOTE
8,Provider 1,McDonald's,8055 S Loop 12,"{""coordinates"": [-96.68482078, 32.71300254], ""type"": ""Point""}",fast_food;food;food_and_drink,,US,75217,dXJuOm1ieHBvaTpjZGVhOGM2Zi1hNzZjLTQ5YjQtODJkMi02ZDk2NDkxZDMzNDY
9,Provider 1,McDonald's,2407 S Hampton Rd,"{""coordinates"": [-96.68496482, 32.84827516], ""type"": ""Point""}",fast_food;food;food_and_drink,,US,75233,dXJuOm1ieHBvaTpiOTVlNWQ5ZC03ZmJkLTRhODgtODEwOC1iZTY3ZDhmMmNkYjM
10,Provider 1,McDonald's,11217 Garland Rd,"{""coordinates"": [-96.68496482, 32.84827516], ""type"": ""Point""}",fast_food;food;food_and_drink,,US,75218,dXJuOm1ieHBvaTpkOWMxMGIzNS1lNzY4LTQ3MTgtOTQ1Mi1jMjA3NzcxMGFlYjY
11,Provider 1,McDonald's,7401 Samuell Blvd Walmart,"{""coordinates"": [-96.68918616, 32.79411801], ""type"": ""Point""}",fast_food;food;food_and_drink,,US,75228,dXJuOm1ieHBvaTo1ODc5NmM5OS0zZGU2LTRiNDMtODg2OS0yMDVjODhiNjI1NWI
12,Provider 1,Walmart Garden Center,7401 Samuell Blvd,"{""coordinates"": [-96.68956993, 32.79411382], ""type"": ""Point""}",garden_store;shopping,,US,75228,dXJuOm1ieHBvaTo0Nzg3MGU5Ni04MWFjLTQ3YmUtODZmMS02MTQxNmExMDhkOWE
13,Provider 1,McDonald's,8117 E R L Thornton Fwy,"{""coordinates"": [-96.70101619, 32.79492273], ""type"": ""Point""}",fast_food;food;food_and_drink,,US,75228,dXJuOm1ieHBvaTplNDU1YWU2NC02MmViLTQxMjgtYTQ0ZC1jNmZkOTU3YzliYzg
14,Provider 1,McDonald's,9403 Garland Rd,"{""coordinates"": [-96.70366792, 32.83320078], ""type"": ""Point""}",fast_food;food;food_and_drink,,US,75218,dXJuOm1ieHBvaToyNDJmYzIxNS03NDhjLTRkOTAtOWEwYS1hZmZjMzc2ZjYyOWU
15,Provider 1,Big Thicket,430 Thicket Cir,"{""coordinates"": [-96.71655049, 32.8464053], ""type"": ""Point""}",restaurant,,US,75218,dXJuOm1ieHBvaTplODM0ZjNlOS1iNzIyLTQxMzQtYTJhMi0zMDU2NmM0ZTg3ZmE
16,Provider 1,Starbucks,8698 Skillman St,"{""coordinates"": [-96.72069461, 32.89627894], ""type"": ""Point""}",cafe;coffee;coffee_shop;food;food_and_drink,,US,752438265,dXJuOm1ieHBvaToyNjA5YjhlYy1lYTQwLTQxNWItYjdkYi03NmY5MGIwNmMzMWM
17,Provider 1,McDonald's,8606 Skillman St,"{""coordinates"": [-96.72206658, 32.8957237], ""type"": ""Point""}",fast_food;food;food_and_drink,,US,75243,dXJuOm1ieHBvaTo2NjBhZmMwOC1jNzVjLTRhOTQtODFlYi00Yzc4OGYxZDgyODA
18,Provider 1,Starbucks,7325 Gaston Ave,"{""coordinates"": [-96.7303422, 32.81187213], ""type"": ""Point""}",cafe;coffee;coffee_shop;food;food_and_drink,,US,752144131,dXJuOm1ieHBvaTo5ZjMyMWJlNC0zOWYzLTRhYWUtODBkNi1lZGYyODQ2ZTU5Y2Q
19,Provider 1,Starbucks Coffee,7190 Skillman Road,"{""coordinates"": [-96.7345605, 32.87746054], ""type"": ""Point""}",cafe;coffee;coffee_shop;food;food_and_drink,,US,752315743,dXJuOm1ieHBvaToxMDFjMmZmNC0zNjQ3LTQ1NzYtOWFmOS0xY2ZkYmQwNTUxMTU
20,Provider 1,McDonald's,11820 Abrams Rd,"{""coordinates"": [-96.73496236, 32.91006421], ""type"": ""Point""}",fast_food;food;food_and_drink,,US,75243,dXJuOm1ieHBvaToyZmFiMDlkYy1mZjM0LTRlNmUtYWI4Ny1kZjk5MjM1NTVlOTE
21,Provider 1,McDonald's,9301 Forest Ln,"{""coordinates"": [-96.73872375, 32.91055519], ""type"": ""Point""}",fast_food;food;food_and_drink,,US,75243,dXJuOm1ieHBvaTpjZTU1YWMwNi0yMDczLTRmNWItODQxNS1mODllMWIwOWJlZTM
22,Provider 1,Walgreens Pharmacy,6505 Abrams Rd,"{""coordinates"": [-96.74498795, 32.8631406], ""type"": ""Point""}",health_services;pharmacy;services,,US,75231,dXJuOm1ieHBvaTpiYjI0NTE1Mi0yMzEzLTRkZjctYWRlMy1jZDEwY2RmOWU1ZTU
23,Provider 1,McDonald's,5934 Abrams Rd,"{""coordinates"": [-96.7482644, 32.85741649], ""type"": ""Point""}",fast_food;food;food_and_drink,,US,75231,dXJuOm1ieHBvaTo0YTZhNzMzZC02YjQyLTRlZDAtOWRjNy0xYzRiM2FjNWY1YTQ
24,Provider 1,Starbucks,1924 Abrams Pkwy,"{""coordinates"": [-96.75251746, 32.81355141], ""type"": ""Point""}",cafe;coffee;coffee_shop;food;food_and_drink,,US,75214,dXJuOm1ieHBvaTowMWJjNThlZS00YTgwLTRjMDctYmZmNC0yNDBhNWVmOGE4OGY
25,Provider 1,Walmart Garden Center,6185 Retail Rd,"{""coordinates"": [-96.75442649, 32.86231131], ""type"": ""Point""}",garden_store;shopping,,US,75231,dXJuOm1ieHBvaTo5MDAwMDk5NC04ZGU2LTQ5YzEtODZiMS02ODRjNTdlYmQ3NDU
26,Provider 1,Starbucks,6333 East Mockingbird,"{""coordinates"": [-96.75453731, 32.83690429], ""type"": ""Point""}",cafe;coffee;coffee_shop;food;food_and_drink,,US,752142384,dXJuOm1ieHBvaTo1ZDM2Y2JlOC00NGE4LTRlOWYtOWRkMy01YWE5M2MyNTE4NDI
27,Provider 1,Mot Hai Ba,6047 Lewis St,"{""coordinates"": [-96.76228713, 32.81224339], ""type"": ""Point""}",asian_restaurant;food;food_and_drink;restaurant,,US,75206,dXJuOm1ieHBvaTo5NTc4OTA1NS1iNDllLTQwMjMtYmFlMi1kNzFlOTU1ZmU4NzA
28,Provider 1,Walgreens,1461 Robert B Cullum Blvd,"{""coordinates"": [-96.76286175, 32.77502908], ""type"": ""Point""}",health_services;pharmacy;services,,US,75210,dXJuOm1ieHBvaToyZjI4OTg4NS03MWE3LTQ3MjctODUxMi1mYjUxYjgyOTQxYWY
29,Provider 1,McDonald's,6950 Greenville Ave,"{""coordinates"": [-96.76299964, 32.872749], ""type"": ""Point""}",fast_food;food;food_and_drink,,US,75231,dXJuOm1ieHBvaTo0NzYzNjFiNi0zMDdmLTQzOWEtYWIxNy01Y2NkMDdiOTE3MjM
30,Provider 1,Starbucks,5905 E. Northwest Highway,"{""coordinates"": [-96.76352259, 32.86598223], ""type"": ""Point""}",cafe;coffee;coffee_shop;food;food_and_drink,,US,752317416,dXJuOm1ieHBvaTo0ZTQ5MGQzOS01NzVjLTRiYTktODJkNy1jMGRmZGQ1OWY4MWM
31,Provider 1,McDonald's,3310 Al Lipscomb Way,"{""coordinates"": [-96.7651476, 32.77677342], ""type"": ""Point""}",fast_food;food;food_and_drink,,US,75210,dXJuOm1ieHBvaTpiOWY1OTY0Ni04ZTgwLTRmNGYtODQyZS0wNzIxOGRiZjgzNDk
32,Provider 1,Starbucks,6123 Greenville Ave,"{""coordinates"": [-96.76826125, 32.86051047], ""type"": ""Point""}",cafe;coffee;coffee_shop;food;food_and_drink,,US,752061910,dXJuOm1ieHBvaTpjNmUzYzE2OS05ZDMwLTRmYzgtODVjNy05N2ZmZWRiODA1MTE
33,Provider 1,McDonald's Inc.,11102 N Central Expy,"{""coordinates"": [-96.76839485, 32.89929147], ""type"": ""Point""}",fast_food;food;food_and_drink,,US,75243,dXJuOm1ieHBvaTo0ZWM1ZWI5MS02YjAxLTRkZDUtOTQ0Yi00MTE0MWVkMmI4YTg
34,Provider 1,Walgreens,5742 E Mockingbird Ln,"{""coordinates"": [-96.76855417, 32.83606268], ""type"": ""Point""}",health_services;pharmacy;services,,US,75206,dXJuOm1ieHBvaTplYTE1MGExMS1kMDI1LTQ1ZmMtYjA1Ni01MWVkOTNkNzE0MzA
35,Provider 1,McDonald's,13040 Coit Rd,"{""coordinates"": [-96.76867961, 32.92574561], ""type"": ""Point""}",fast_food;food;food_and_drink,,US,75240,dXJuOm1ieHBvaToxMWZkYWFhMy02NDc1LTQwYTAtYjcxMy04M2Y2NzY3NmU1N2M
36,Provider 1,Starbucks,1827 Greenville Ave,"{""coordinates"": [-96.77061024, 32.81314597], ""type"": ""Point""}",cafe;coffee;coffee_shop;food;food_and_drink,,US,752067436,dXJuOm1ieHBvaTo1ODYyMDMxOS01MmNjLTQ2NzQtYjM0MS03ZjQ1ODg2NDE2ZWU
37,Provider 1,Starbucks,7804 Forest Ln,"{""coordinates"": [-96.77172191, 32.90887487], ""type"": ""Point""}",cafe;coffee;coffee_shop;food;food_and_drink,,US,752302424,dXJuOm1ieHBvaToxNmFkZDliMS0xM2E1LTRiNmQtYjJjMi04ZjFiNjk0NDAzYzc
38,Provider 1,Walgreens,5001 Ross Ave,"{""coordinates"": [-96.77524261, 32.80762229], ""type"": ""Point""}",health_services;pharmacy;services,,US,75206,dXJuOm1ieHBvaTplMTkxNWM5NS0wYmE2LTQwNGEtYjk0MC05MGRiMjlhN2VjZTA
39,Provider 1,Starbucks,5331 E. Mockingbird Lane,"{""coordinates"": [-96.77655298, 32.83725923], ""type"": ""Point""}",cafe;coffee;coffee_shop;food;food_and_drink,,US,752065197,dXJuOm1ieHBvaTozNDdlODAyMi0yZTM2LTRjZTctOWI2Zi1lYjg4NDY4YTFlN2U
40,Provider 1,Starbucks,4025 Gaston Avenue,"{""coordinates"": [-96.77713665, 32.7938288], ""type"": ""Point""}",cafe;coffee;coffee_shop;food;food_and_drink,,US,752461514,dXJuOm1ieHBvaTo0MWRkMjg3OC0zNzJmLTQwM2ItOGUzNC1lNDVjMGIwZTI4ZjQ
41,Provider 1,21 Flavors Wings,4321 Live Oak St,"{""coordinates"": [-96.7778657, 32.79871521], ""type"": ""Point""}",food;food_and_drink;restaurant,,US,75204,dXJuOm1ieHBvaTo4MGNjZmU3OC1kNjU0LTRkYTAtOTRjOC1hYmI1YjBiY2Y1MGU
42,Provider 1,McDonald's,3802 Gaston Ave,"{""coordinates"": [-96.77868369, 32.79208548], ""type"": ""Point""}",fast_food;food;food_and_drink,,US,75246,dXJuOm1ieHBvaToyNjBjNDE4Ny00MThlLTQwMDgtYjMwOC1hMGExZDRhZGZlNWY
43,Provider 1,Starbucks,Hillcrest & Mockingbird,"{""coordinates"": [-96.78375404, 32.84425963], ""type"": ""Point""}",cafe;coffee;coffee_shop;food;food_and_drink,,US,75205,dXJuOm1ieHBvaTpjZDcyYzZmOS0xYjI3LTRhZTItYmI5Ni1mYWE4YjMzNWIxYTI
44,Provider 1,Starbucks,6733 Hillcrest Avenue,"{""coordinates"": [-96.78707145, 32.84840126], ""type"": ""Point""}",cafe;coffee;coffee_shop;food;food_and_drink,,US,752051304,dXJuOm1ieHBvaToxYTJlOTg3YS01MTMzLTQ2MWQtOTRhZi0zOThjZjk0MzYzNmM
45,Provider 1,Starbucks,4241 Capitol Ave,"{""coordinates"": [-96.78912249, 32.80635749], ""type"": ""Point""}",cafe;coffee;coffee_shop;food;food_and_drink,,US,75204,dXJuOm1ieHBvaTo4MDNkODQyMS04OWFkLTQyY2UtODQwMC1lYzk1Y2YxYzZjMDM
46,Provider 1,Walgreens Photo,6707 W Northwest Hwy,"{""coordinates"": [-96.78932714, 32.8661765], ""type"": ""Point""}",photo_store;photographer;services;shopping,,US,75225,dXJuOm1ieHBvaTpjNzVjOWVlYy1hN2EwLTRjZTUtYmYyZi04OGVkNDU0ZjgwM2E
47,Provider 1,Starbucks,6859 Arapaho,"{""coordinates"": [-96.79028127, 32.96256877], ""type"": ""Point""}",cafe;coffee;coffee_shop;food;food_and_drink,,US,752484062,dXJuOm1ieHBvaTo4NzYxMzNlYi03MjQ4LTQ0ZDQtYTRkYS0wZTEwMDk2OTVkZjY
48,Provider 1,Le Bilboquet,4514 Travis St UNIT 124,"{""coordinates"": [-96.79099377, 32.82219134], ""type"": ""Point""}",food;food_and_drink;french_restaurant;restaurant,,US,75205,dXJuOm1ieHBvaTpjN2E5NTQ2ZC1jNjBkLTQ0MDEtYTgyOS1hOWVmOGRjNTFmZDc
49,Provider 1,Target Mobile,2417 S Haskell Ave.,"{""coordinates"": [-96.7914907, 32.80387821], ""type"": ""Point""}",phone_store;shopping,,US,75204,dXJuOm1ieHBvaTo2Y2U4ZjFlMC1jYzFhLTQxZjMtYmMzNC01YzczMDE3YTFlMjA
50,Provider 1,Starbucks,2200 Ross Ave,"{""coordinates"": [-96.79641983, 32.7879214], ""type"": ""Point""}",cafe;coffee;coffee_shop;food;food_and_drink,,US,752012708,dXJuOm1ieHBvaTo3ZmU3NDlhYy1lZTU5LTQwOTAtYjZmZi01ODI4ZmIxM2ZjZjI
51,Provider 1,Starbucks,1700 COMMERCE STREET,"{""coordinates"": [-96.79673437, 32.7802612], ""type"": ""Point""}",cafe;coffee;coffee_shop;food;food_and_drink,,US,75201,dXJuOm1ieHBvaToyM2MwNjRhYi00YzNlLTQ3YjktOGZlMC1iMmUxYmM5MDhlNmI
52,Provider 1,Starbucks,2801 Allen St.,"{""coordinates"": [-96.80107173, 32.80041506], ""type"": ""Point""}",cafe;coffee;coffee_shop;food;food_and_drink,,US,752041031,dXJuOm1ieHBvaTpmZmMzNGI3YS1mYjdkLTQ4MGUtYTRmNS05YzlhZDIzNzI4MzQ
53,Provider 1,Starbucks,1717 N. Akard,"{""coordinates"": [-96.80139079, 32.78529827], ""type"": ""Point""}",cafe;coffee;coffee_shop;food;food_and_drink,,US,752012301,dXJuOm1ieHBvaTplMDQyM2Q5MS1hYTBmLTQzNjgtOTYyYi1kMjNjYzg4MjNkYzg
54,Provider 1,Starbucks,7300 UNIVERSITY HILLS BLVD.,"{""coordinates"": [-96.80268133, 32.6593765], ""type"": ""Point""}",cafe;coffee;coffee_shop;food;food_and_drink,,US,75241,dXJuOm1ieHBvaToyYzFjYjJiYS1kMjFhLTQ3YTAtOTVjNy1hY2VjZjQwOGZkYmI
55,Provider 1,McDonald's,1000 Commerce St,"{""coordinates"": [-96.80298401, 32.77877574], ""type"": ""Point""}",fast_food;food;food_and_drink,,US,75202,dXJuOm1ieHBvaToyMzdhYTgxNi00YWZmLTRlMGUtOTFmNS02MGI3ZDczZDI5NDg
56,Provider 1,McDonald's,14770 Preston Rd,"{""coordinates"": [-96.80299113, 32.94950092], ""type"": ""Point""}",fast_food;food;food_and_drink,,US,75240,dXJuOm1ieHBvaToxYzY4ZGRhNS00MTMyLTRmN2MtYjgxMS1hNWYxZTRjMjg4YTU
57,Provider 1,Starbucks,13556 Preston Rd,"{""coordinates"": [-96.80324778, 32.93268834], ""type"": ""Point""}",cafe;coffee;coffee_shop;food;food_and_drink,,US,752405212,dXJuOm1ieHBvaTozMTk1ZjNhMS1jOWVlLTQwZGYtOTQxYi1mMTEwYjQ0NGExMjQ
58,Provider 1,Starbucks,400 Crescent Court,"{""coordinates"": [-96.80365197, 32.79434073], ""type"": ""Point""}",cafe;coffee;coffee_shop;food;food_and_drink,,US,752011838,dXJuOm1ieHBvaTpkMDExYmI5Yy0wNDE0LTRhOTAtOTFhMy0xYTcyMjM5OGViM2E
59,Provider 1,Starbucks,11919 Preston Road,"{""coordinates"": [-96.8042431, 32.91135073], ""type"": ""Point""}",cafe;coffee;coffee_shop;food;food_and_drink,,US,752302710,dXJuOm1ieHBvaTphNDg2NWY2NC1mM2Q1LTRmNTQtOTYzMy1mNjc1ZTU3OWEzNTc
60,Provider 1,Starbucks,100 Highland Park Village,"{""coordinates"": [-96.80490465, 32.83599667], ""type"": ""Point""}",cafe;coffee;coffee_shop;food;food_and_drink,,US,75205,dXJuOm1ieHBvaTpjMWZhMjkxNS04MDMwLTQyZmEtYTYzMS1mZDEyMjI5MTc5MGI
61,Provider 1,Starbucks,8411 Preston Rd,"{""coordinates"": [-96.80511286, 32.8652443], ""type"": ""Point""}",cafe;coffee;coffee_shop;food;food_and_drink,,US,752255516,dXJuOm1ieHBvaTpiNjdhNWIyMy0xNjJmLTRjNzQtOGVkNS1lMWQ1OGRiMDVkOWM
62,Provider 1,Starbucks,4023 Lemon Ave,"{""coordinates"": [-96.80854712, 32.81418643], ""type"": ""Point""}",cafe;coffee;coffee_shop;food;food_and_drink,,US,752193737,dXJuOm1ieHBvaTplODA0ZjI5MC1jNzc1LTRlNTktYWYzNy0wYjE5MjNkN2Y2Zjg
63,Provider 1,Walgreens Pharmacy,3802 Cedar Springs Rd,"{""coordinates"": [-96.80874063, 32.80989655], ""type"": ""Point""}",health_services;pharmacy;services,,US,75219,dXJuOm1ieHBvaTo2OGM3ZGM0ZC0yNWM3LTRmYTAtODhiOS1mM2JjMzY3MDQ1ZWI
64,Provider 1,Starbucks,2401 Victory Park Lane,"{""coordinates"": [-96.80946827, 32.7883777], ""type"": ""Point""}",cafe;coffee;coffee_shop;food;food_and_drink,,US,752197645,dXJuOm1ieHBvaTpjNzQ0NTc2NC1hNjFkLTQxZTgtOTRhOS1hYzU4OTQxMGM5MDU
65,Provider 1,Starbucks,2800 Oak Lawn,"{""coordinates"": [-96.81058088, 32.80709656], ""type"": ""Point""}",cafe;coffee;coffee_shop;food;food_and_drink,,US,752194128,dXJuOm1ieHBvaTpkY2IyMGQwNy1mNGI4LTQwNzItOGE3My1kNzc2ODNjYzBjNWE
66,Provider 1,Target Grocery,13131 Montfort Dr,"{""coordinates"": [-96.81334675, 32.92802778], ""type"": ""Point""}",grocery;shopping;supermarket,,US,75240,dXJuOm1ieHBvaTpjMmQ3MzEwOS05ZDA0LTQ2MTAtOGQzMy1iOTAwMDE1OTU1MDk
67,Provider 1,McDonald's,650 N Riverfront Blvd,"{""coordinates"": [-96.81446481, 32.7829324], ""type"": ""Point""}",fast_food;food;food_and_drink,,US,75207,dXJuOm1ieHBvaTo0ZjM5NzdhOC03NmM2LTRjMWEtOGE1Zi05NDBlODU4Mzg4ZTA
68,Provider 1,Starbucks,12262 Inwood Road,"{""coordinates"": [-96.81805914, 32.91519301], ""type"": ""Point""}",cafe;coffee;coffee_shop;food;food_and_drink,,US,752448019,dXJuOm1ieHBvaTpiZDFiNDkyMS03YTU0LTQ4ODMtODM1MS1kNDk1YTZlMDE5MjY
69,Provider 1,Starbucks,13350 Dallas Pkwy,"{""coordinates"": [-96.819832, 32.93015405], ""type"": ""Point""}",cafe;coffee;coffee_shop;food;food_and_drink,,US,752406874,dXJuOm1ieHBvaTo0MzgzNTc5ZC04ZjdjLTQ3OWEtYjI5Yi1iMzk1NGM1YTM3YmM
70,Provider 1,Tortas Insurgentes,201 Jefferson Blvd,"{""coordinates"": [-96.82480549, 32.74331023], ""type"": ""Point""}",food;food_and_drink;mexican_restaurant;restaurant,,US,75208,dXJuOm1ieHBvaTo5YTlmMzQ3Yy1jMDM5LTRjNmYtOTc5Ny1iOTgxMzNiYzA2MGQ
71,Provider 1,Starbucks,2050 N Stemmons Fwy,"{""coordinates"": [-96.82497379, 32.80291228], ""type"": ""Point""}",cafe;coffee;coffee_shop;food;food_and_drink,,US,75207,dXJuOm1ieHBvaTphOTAxNGUzNy0zOWQ3LTQ3MGItYTBlOC04MDVmZjkzZjAxOTE
72,Provider 1,Saint Rocco's New York Italian,3011 Gulden Ln #100,"{""coordinates"": [-96.82816527, 32.77923579], ""type"": ""Point""}",food;food_and_drink;italian_restaurant;restaurant,,US,75212,dXJuOm1ieHBvaTplYzM4MDNjOC00ZDUxLTQ2OTUtYmNiZS0wYTAyZjAyMjRmM2Y
73,Provider 1,McDonald's,705 W Jefferson Blvd,"{""coordinates"": [-96.83438346, 32.7434437], ""type"": ""Point""}",fast_food;food;food_and_drink,,US,75208,dXJuOm1ieHBvaTphNTg2OGEwMi0yNzg5LTQ3NmEtYjc5MC0yMTU5NzZhOTM2MWU
74,Provider 1,Starbucks,1935 MEDICAL DISTRICT DR.,"{""coordinates"": [-96.83792142, 32.80955608], ""type"": ""Point""}",cafe;coffee;coffee_shop;food;food_and_drink,,US,75235,dXJuOm1ieHBvaTplNDQ4NjM3Yi1jYTYwLTRlNmMtODQwOS0yZGY1YjY4YWNlNGM
75,Provider 1,Walgreens ATM,1060 W Camp Wisdom Rd,"{""coordinates"": [-96.83931851, 32.6617148], ""type"": ""Point""}",atm;bank;financial_services;services,,US,75232,dXJuOm1ieHBvaTpmY2M5MmJiMS0yYjVhLTQ0NjktODE2NC1kYmU4ODgzYWZiNTA
76,Provider 1,RideShare Parking,Hawes Ave & Aubrey Ave,"{""coordinates"": [-96.83976253, 32.83376382], ""type"": ""Point""}",office,,US,75235,dXJuOm1ieHBvaTo1NjRlOTg1NS0yOTk5LTQyNTEtYjY3MC1kYmNkZTYxN2MzY2Y
77,Provider 1,Walmart Home Services,4122 Lyndon B Johnson Fwy,"{""coordinates"": [-96.8401524, 32.92212352], ""type"": ""Point""}",care_services;health_services;services,,US,75244,dXJuOm1ieHBvaTo1YTg2NzBlOS1mNjgxLTQ2ZDItOGU0Yi02NGMxOWJhYWQzYTc
78,Provider 1,Chinese Kitchen,3939 S Polk St #203,"{""coordinates"": [-96.84153093, 32.69610178], ""type"": ""Point""}",chinese_restaurant;food;food_and_drink;restaurant,,US,75224,dXJuOm1ieHBvaTpiY2RkOTJhNy05ZjQ1LTQ5MjEtYjU1OC04NDVmZTNkYjMwM2Y
79,Provider 1,McDonald's,17606 Midway Rd,"{""coordinates"": [-96.84164933, 32.98791982], ""type"": ""Point""}",fast_food;food;food_and_drink,,US,75287,dXJuOm1ieHBvaTo3YjkyMGU4MS1hZjUxLTRlNzUtODhhNS00OWU1NzZjODNkOTI
80,Provider 1,Emily's Pizza & Pasta,18110 Midway Rd #104,"{""coordinates"": [-96.84253075, 32.99634462], ""type"": ""Point""}",fast_food;food;food_and_drink;pizza_restaurant,,US,75287,dXJuOm1ieHBvaTo3MDM4ZDgwMS1kYjFkLTQ4NzktYmU5ZC04NmY1NTI3MmZjM2I
81,Provider 1,Dallas Love Field ATM (Main Lobby - Sky Bridge Entrance),8008 Herb Kelleher Way,"{""coordinates"": [-96.84973173, 32.84477537], ""type"": ""Point""}",atm;bank;financial_services;services,,US,75235,dXJuOm1ieHBvaTo4NTYyMzdjYi1hMWUxLTRjMjQtOGViYy00ZjhjMTYwNWM1M2Y
82,Provider 1,McDonald's,3026 N Hampton Rd,"{""coordinates"": [-96.85602009, 32.77947328], ""type"": ""Point""}",fast_food;food;food_and_drink,,US,75212,dXJuOm1ieHBvaTpiNzU2OGYyMC1iNTUyLTRmZjgtOWY1NS0xNzMwMjVkMDMyOGY
83,Provider 1,Starbucks,3701 W Northwest Hwy,"{""coordinates"": [-96.85741108, 32.8608757], ""type"": ""Point""}",cafe;coffee;coffee_shop;food;food_and_drink,,US,752204906,dXJuOm1ieHBvaTowYzQ1YTU0NS1mN2E1LTRjMDMtOWMzOC0wNzRjYzFkMzIzNTQ
84,Provider 1,McDonald's,8435 S Hampton Rd,"{""coordinates"": [-96.8577111, 32.64464876], ""type"": ""Point""}",fast_food;food;food_and_drink,,US,75232,dXJuOm1ieHBvaTozNTVlNGFmZC0wYWY5LTQyZWYtOTgyMC1jOTAxOGFiNzQ5YzU
85,Provider 1,Walmart Connection Center,18121 Marsh Ln,"{""coordinates"": [-96.8578522, 32.99540321], ""type"": ""Point""}",phone_store;shopping,,US,75287,dXJuOm1ieHBvaTplYzBhZDk5Mi04NjJlLTQyZGUtYjlkNC03OGY2N2EwZWU1YTE
86,Provider 1,Starbucks,315 South Hampton,"{""coordinates"": [-96.85812457, 32.74255688], ""type"": ""Point""}",cafe;coffee;coffee_shop;food;food_and_drink,,US,752085618,dXJuOm1ieHBvaTo5MDNlYmQ0Ny05YzgwLTQzODAtYmFkMC1mY2VhNWI2MjhkMjY
87,Provider 1,McDonald's,2569 W Red Bird Ln,"{""coordinates"": [-96.86068685, 32.6707349], ""type"": ""Point""}",fast_food;food;food_and_drink,,US,75237,dXJuOm1ieHBvaTplYjJiNzVjYy04ZmYwLTQ5NWEtYWVlMC0yZTBkZDMzZWIyZjQ
88,Provider 1,McDonald's,3520 Storey Ln,"{""coordinates"": [-96.86405724, 32.86524574], ""type"": ""Point""}",fast_food;food;food_and_drink,,US,75220,dXJuOm1ieHBvaTpjMjA4OWExNS1mNDFkLTRjMDMtODI5OS1mNGE1YTcwYWRhNmM
89,Provider 1,Starbucks,1103 W Mockingbird Ln,"{""coordinates"": [-96.87079584, 32.81824869], ""type"": ""Point""}",cafe;coffee;coffee_shop;food;food_and_drink,,US,752475005,dXJuOm1ieHBvaTphMWNiOTBmNC0yOTM5LTQ4ZTktYmIwMi1iMWQ0N2M3NzRmNGQ
90,Provider 1,COVID-19 Drive-Thru Testing at Walgreens,1104 S Westmoreland Rd,"{""coordinates"": [-96.87351805, 32.73403434], ""type"": ""Point""}",health_services;pharmacy;services,,US,75211,dXJuOm1ieHBvaTpmNmVhZmEyNy1lOWMxLTRlMmItODk2Zi0zMzgyN2Y0MzkwYmY
91,Provider 1,Starbucks,3620 W Camp Wisdom Road,"{""coordinates"": [-96.87933306, 32.6617881], ""type"": ""Point""}",cafe;coffee;coffee_shop;food;food_and_drink,,US,752372508,dXJuOm1ieHBvaTozZjhiYjZiZi1iZjljLTQzZGYtOTM2OC1kZTQ0ZWMzOTY4ZmM
92,Provider 1,McDonald's,4223 W Illinois Ave,"{""coordinates"": [-96.88937987, 32.72079008], ""type"": ""Point""}",fast_food;food;food_and_drink,,US,75211,dXJuOm1ieHBvaTpjYWY4M2FlNC0zNTQwLTQ2OTMtYWYyNi00NjA5YTNhNDY0ZWY
93,Provider 1,Kababjee of Texas,11276 Harry Hines Blvd,"{""coordinates"": [-96.88953583, 32.89258781], ""type"": ""Point""}",food;food_and_drink;restaurant,,US,75229,dXJuOm1ieHBvaTo2MjZjMzJmOC04MDE3LTQ1NDItYjVlYS0yODJjZWI3OTcxNTY
94,Provider 1,Walgreens,8120 S Cockrell Hill Rd,"{""coordinates"": [-96.89075998, 32.64822243], ""type"": ""Point""}",health_services;pharmacy;services,,US,75236,dXJuOm1ieHBvaTpjMGVkYTViOS1lZWRjLTQ1OGUtYjAxMi1jY2ZlODkxN2U5NzE
95,Provider 1,Starbucks,2285 W. Northwest Highway,"{""coordinates"": [-96.8914009, 32.86212346], ""type"": ""Point""}",cafe;coffee;coffee_shop;food;food_and_drink,,US,752204304,dXJuOm1ieHBvaTplZTEyZjE1My1mYmY5LTQxZDYtYmY3Mi1jNWY4ZjE3NGM2ZjI
96,Provider 1,Starbucks,1601 N Cockrell Hill,"{""coordinates"": [-96.89607451, 32.76491553], ""type"": ""Point""}",cafe;coffee;coffee_shop;food;food_and_drink,,US,752111326,dXJuOm1ieHBvaTphY2Y4OTYyYS03YmI3LTQ5M2ItYjkwYy01YjIxYThhZDExMzI
97,Provider 1,McDonald's,2473 Royal Ln,"{""coordinates"": [-96.8963348, 32.89644961], ""type"": ""Point""}",fast_food;food;food_and_drink,,US,75229,dXJuOm1ieHBvaTozZGQzYTNlNC01Mjk3LTQzODUtOWQ2OC00MDQwMDcwNzRjZDU
98,Provider 1,McDonald's,4330 Dallas Fort Worth Turnpike,"{""coordinates"": [-96.89686723, 32.76517411], ""type"": ""Point""}",fast_food;food;food_and_drink,,US,75211,dXJuOm1ieHBvaTowNGExNThiOS1kMzI3LTQxNDAtODk1Ny05NTZiMjFkYTQ5OTg
99,Provider 1,McDonald's,2197 W Northwest Hwy,"{""coordinates"": [-96.90129013, 32.86537818], ""type"": ""Point""}",fast_food;food;food_and_drink,,US,75220,dXJuOm1ieHBvaTozNjQ2YjY3ZC1jNDcxLTRhYzctOWY1Yi0xYjdlN2QxYzY0ZGU
100,Provider 1,JOA Korean BBQ,2254 Royal Ln #100,"{""coordinates"": [-96.90241386, 32.89527747], ""type"": ""Point""}",food;food_and_drink;restaurant,,US,75229,dXJuOm1ieHBvaTo2NjdlZTkyNC05MjVlLTQ2NGItOGYxMi02OWIxZWJlYzU0Njc